EUTELSAT 21B            
1 38992U 12062B   26012.88079289  .00000148  00000+0  00000+0 0  9995
2 38992   0.0743  28.7128 0003155 269.3312 153.0012  1.00273799 48276
EUTELSAT 70B            
1 39020U 12069A   26013.17664118 -.00000024  00000+0  00000+0 0  9993
2 39020   0.0610 356.6991 0003761 272.6222 337.4102  1.00271056 47959
EUTELSAT 117 WEST A     
1 39122U 13012A   26013.16113336  .00000006  00000+0  00000+0 0  9994
2 39122   0.0315 297.2516 0002808   3.4725 113.1037  1.00271682 46877
EUTELSAT 7B             
1 39163U 13022A   26013.09194183  .00000067  00000+0  00000+0 0  9998
2 39163   0.0708 338.4927 0005349 354.8271 179.3589  1.00274267 46399
EXPRESS-AT1             
1 39612U 14010A   26013.17297568  .00000098  00000+0  00000+0 0  9999
2 39612   0.0294 245.2024 0000504 335.7163  10.0005  1.00270161 43263
EXPRESS-AT2             
1 39613U 14010B   26013.18955008 -.00000263  00000+0  00000+0 0  9996
2 39613   0.0133 316.5931 0001654 326.6492  37.5079  1.00271716 42942
EUTELSAT 3B             
1 39773U 14030A   26013.09116183  .00000038  00000+0  00000+0 0  9997
2 39773   0.0603 356.7198 0003354 246.6052 265.1479  1.00271235 42516
EUTELSAT 115 WEST B     
1 40425U 15010B   26012.40679762 -.00000007  00000+0  00000+0 0  9990
2 40425   0.0068 158.5223 0000184 110.3409 234.5687  1.00269701 39832
